[{"OBJECT_NAME":"ONEWEB-0567","OBJECT_ID":"2023-004H","EPOCH":"2026-05-09T03:16:20.919072","MEAN_MOTION":13.18684232,"ECCENTRICITY":0.0001451,"INCLINATION":87.9179,"RA_OF_ASC_NODE":343.2442,"ARG_OF_PERICENTER":80.4908,"MEAN_ANOMALY":279.6388,"EPHEMERIS_TYPE":0,"CLASSIFICATION_TYPE":"U","NORAD_CAT_ID":55147,"ELEMENT_SET_NO":999,"REV_AT_EPOCH":16455,"BSTAR":0.00011159,"MEAN_MOTION_DOT":5.7e-07,"MEAN_MOTION_DDOT":0.0},{"OBJECT_NAME":"ONEWEB-0569","OBJECT_ID":"2023-004J","EPOCH":"2026-05-09T01:57:10.590048","MEAN_MOTION":13.13470963,"ECCENTRICITY":0.0001366,"INCLINATION":87.8958,"RA_OF_ASC_NODE":328.0086,"ARG_OF_PERICENTER":56.8733,"MEAN_ANOMALY":303.2527,"EPHEMERIS_TYPE":0,"CLASSIFICATION_TYPE":"U","NORAD_CAT_ID":55148,"ELEMENT_SET_NO":999,"REV_AT_EPOCH":16504,"BSTAR":0.00095121,"MEAN_MOTION_DOT":3.6e-06,"MEAN_MOTION_DDOT":0.0},{"OBJECT_NAME":"ONEWEB-0570","OBJECT_ID":"2023-004K","EPOCH":"2026-05-09T03:04:15.339648","MEAN_MOTION":13.18687246,"ECCENTRICITY":0.0001658,"INCLINATION":87.9174,"RA_OF_ASC_NODE":343.2441,"ARG_OF_PERICENTER":99.2177,"MEAN_ANOMALY":260.9143,"EPHEMERIS_TYPE":0,"CLASSIFICATION_TYPE":"U","NORAD_CAT_ID":55149,"ELEMENT_SET_NO":999,"REV_AT_EPOCH":16454,"BSTAR":-5.2501e-05,"MEAN_MOTION_DOT":-8e-08,"MEAN_MOTION_DDOT":0.0},{"OBJECT_NAME":"ONEWEB-0571","OBJECT_ID":"2023-004L","EPOCH":"2026-05-09T02:54:32.419584","MEAN_MOTION":13.18687084,"ECCENTRICITY":7.34e-05,"INCLINATION":87.9178,"RA_OF_ASC_NODE":343.2439,"ARG_OF_PERICENTER":48.783,"MEAN_ANOMALY":311.3365,"EPHEMERIS_TYPE":0,"CLASSIFICATION_TYPE":"U","NORAD_CAT_ID":55150,"ELEMENT_SET_NO":999,"REV_AT_EPOCH":16455,"BSTAR":4.5686e-05,"MEAN_MOTION_DOT":3.1e-07,"MEAN_MOTION_DDOT":0.0},{"OBJECT_NAME":"ONEWEB-0572","OBJECT_ID":"2023-004M","EPOCH":"2026-05-09T04:25:32.533248","MEAN_MOTION":13.17649432,"ECCENTRICITY":0.0001578,"INCLINATION":87.9169,"RA_OF_ASC_NODE":13.6191,"ARG_OF_PERICENTER":80.8773,"MEAN_ANOMALY":279.2537,"EPHEMERIS_TYPE":0,"CLASSIFICATION_TYPE":"U","NORAD_CAT_ID":55151,"ELEMENT_SET_NO":999,"REV_AT_EPOCH":16234,"BSTAR":0.00010201000000000001,"MEAN_MOTION_DOT":5.2e-07,"MEAN_MOTION_DDOT":0.0},{"OBJECT_NAME":"ONEWEB-0573","OBJECT_ID":"2023-004N","EPOCH":"2026-05-09T02:44:48.459264","MEAN_MOTION":13.18686034,"ECCENTRICITY":9.31e-05,"INCLINATION":87.9176,"RA_OF_ASC_NODE":343.2469,"ARG_OF_PERICENTER":75.5748,"MEAN_ANOMALY":284.5488,"EPHEMERIS_TYPE":0,"CLASSIFICATION_TYPE":"U","NORAD_CAT_ID":55152,"ELEMENT_SET_NO":999,"REV_AT_EPOCH":16454,"BSTAR":-0.0002842,"MEAN_MOTION_DOT":-9.9e-07,"MEAN_MOTION_DDOT":0.0},{"OBJECT_NAME":"ONEWEB-0588","OBJECT_ID":"2023-004P","EPOCH":"2026-05-09T02:35:05.933184","MEAN_MOTION":13.18685724,"ECCENTRICITY":0.0001544,"INCLINATION":87.9175,"RA_OF_ASC_NODE":343.249,"ARG_OF_PERICENTER":101.4078,"MEAN_ANOMALY":258.7228,"EPHEMERIS_TYPE":0,"CLASSIFICATION_TYPE":"U","NORAD_CAT_ID":55153,"ELEMENT_SET_NO":999,"REV_AT_EPOCH":16454,"BSTAR":0.00013963999999999998,"MEAN_MOTION_DOT":6.8e-07,"MEAN_MOTION_DDOT":0.0},{"OBJECT_NAME":"ONEWEB-0598","OBJECT_ID":"2023-004Q","EPOCH":"2026-05-09T04:08:35.221632","MEAN_MOTION":13.1141747,"ECCENTRICITY":0.0001345,"INCLINATION":87.8918,"RA_OF_ASC_NODE":28.8287,"ARG_OF_PERICENTER":58.4038,"MEAN_ANOMALY":301.7221,"EPHEMERIS_TYPE":0,"CLASSIFICATION_TYPE":"U","NORAD_CAT_ID":55154,"ELEMENT_SET_NO":999,"REV_AT_EPOCH":16078,"BSTAR":0.00053359,"MEAN_MOTION_DOT":2.02e-06,"MEAN_MOTION_DDOT":0.0},{"OBJECT_NAME":"ONEWEB-0599","OBJECT_ID":"2023-004R","EPOCH":"2026-05-09T03:29:39.256800","MEAN_MOTION":13.17650008,"ECCENTRICITY":0.0001873,"INCLINATION":87.917,"RA_OF_ASC_NODE":13.6254,"ARG_OF_PERICENTER":74.3367,"MEAN_ANOMALY":285.7971,"EPHEMERIS_TYPE":0,"CLASSIFICATION_TYPE":"U","NORAD_CAT_ID":55155,"ELEMENT_SET_NO":999,"REV_AT_EPOCH":16234,"BSTAR":-6.0219999999999996e-05,"MEAN_MOTION_DOT":-1.1e-07,"MEAN_MOTION_DDOT":0.0},{"OBJECT_NAME":"ONEWEB-0614","OBJECT_ID":"2023-004S","EPOCH":"2026-05-09T04:01:14.191968","MEAN_MOTION":13.11418623,"ECCENTRICITY":0.0001855,"INCLINATION":87.8919,"RA_OF_ASC_NODE":28.8382,"ARG_OF_PERICENTER":85.9239,"MEAN_ANOMALY":274.2101,"EPHEMERIS_TYPE":0,"CLASSIFICATION_TYPE":"U","NORAD_CAT_ID":55156,"ELEMENT_SET_NO":999,"REV_AT_EPOCH":16072,"BSTAR":0.0013089,"MEAN_MOTION_DOT":4.77e-06,"MEAN_MOTION_DDOT":0.0},{"OBJECT_NAME":"ONEWEB-0616","OBJECT_ID":"2023-004T","EPOCH":"2026-05-09T04:30:24.025248","MEAN_MOTION":13.17648737,"ECCENTRICITY":0.0002464,"INCLINATION":87.9169,"RA_OF_ASC_NODE":13.6198,"ARG_OF_PERICENTER":63.4074,"MEAN_ANOMALY":296.7309,"EPHEMERIS_TYPE":0,"CLASSIFICATION_TYPE":"U","NORAD_CAT_ID":55157,"ELEMENT_SET_NO":999,"REV_AT_EPOCH":16256,"BSTAR":-0.00041410000000000004,"MEAN_MOTION_DOT":-1.48e-06,"MEAN_MOTION_DDOT":0.0},{"OBJECT_NAME":"ONEWEB-0617","OBJECT_ID":"2023-004U","EPOCH":"2026-05-09T03:44:07.418688","MEAN_MOTION":13.11421529,"ECCENTRICITY":0.0001706,"INCLINATION":87.8922,"RA_OF_ASC_NODE":28.8296,"ARG_OF_PERICENTER":93.7806,"MEAN_ANOMALY":266.3517,"EPHEMERIS_TYPE":0,"CLASSIFICATION_TYPE":"U","NORAD_CAT_ID":55158,"ELEMENT_SET_NO":999,"REV_AT_EPOCH":16074,"BSTAR":0.00052969,"MEAN_MOTION_DOT":2e-06,"MEAN_MOTION_DDOT":0.0},{"OBJECT_NAME":"ONEWEB-0618","OBJECT_ID":"2023-004V","EPOCH":"2026-05-09T04:02:36.018816","MEAN_MOTION":15.12841374,"ECCENTRICITY":0.0015226,"INCLINATION":86.9136,"RA_OF_ASC_NODE":193.4645,"ARG_OF_PERICENTER":82.0144,"MEAN_ANOMALY":278.2823,"EPHEMERIS_TYPE":0,"CLASSIFICATION_TYPE":"U","NORAD_CAT_ID":55159,"ELEMENT_SET_NO":999,"REV_AT_EPOCH":17636,"BSTAR":-9.046600000000001e-05,"MEAN_MOTION_DOT":-1.554e-05,"MEAN_MOTION_DDOT":0.0},{"OBJECT_NAME":"ONEWEB-0619","OBJECT_ID":"2023-004W","EPOCH":"2026-05-09T03:27:13.084416","MEAN_MOTION":13.1764866,"ECCENTRICITY":0.00022,"INCLINATION":87.9179,"RA_OF_ASC_NODE":13.6061,"ARG_OF_PERICENTER":86.8143,"MEAN_ANOMALY":273.3241,"EPHEMERIS_TYPE":0,"CLASSIFICATION_TYPE":"U","NORAD_CAT_ID":55160,"ELEMENT_SET_NO":999,"REV_AT_EPOCH":16245,"BSTAR":-0.00016131,"MEAN_MOTION_DOT":-5e-07,"MEAN_MOTION_DDOT":0.0},{"OBJECT_NAME":"ONEWEB-0620","OBJECT_ID":"2023-004X","EPOCH":"2026-05-09T03:36:48.211200","MEAN_MOTION":13.11420628,"ECCENTRICITY":0.0001493,"INCLINATION":87.8918,"RA_OF_ASC_NODE":28.8414,"ARG_OF_PERICENTER":77.9992,"MEAN_ANOMALY":282.1303,"EPHEMERIS_TYPE":0,"CLASSIFICATION_TYPE":"U","NORAD_CAT_ID":55161,"ELEMENT_SET_NO":999,"REV_AT_EPOCH":16071,"BSTAR":0.00029516,"MEAN_MOTION_DOT":1.17e-06,"MEAN_MOTION_DDOT":0.0},{"OBJECT_NAME":"ONEWEB-0621","OBJECT_ID":"2023-004Y","EPOCH":"2026-05-09T04:15:52.364160","MEAN_MOTION":13.11417255,"ECCENTRICITY":0.0001901,"INCLINATION":87.8926,"RA_OF_ASC_NODE":28.8213,"ARG_OF_PERICENTER":86.6559,"MEAN_ANOMALY":273.4787,"EPHEMERIS_TYPE":0,"CLASSIFICATION_TYPE":"U","NORAD_CAT_ID":55162,"ELEMENT_SET_NO":999,"REV_AT_EPOCH":16069,"BSTAR":0.0013728000000000002,"MEAN_MOTION_DOT":4.99e-06,"MEAN_MOTION_DDOT":0.0},{"OBJECT_NAME":"ONEWEB-0622","OBJECT_ID":"2023-004Z","EPOCH":"2026-05-09T04:23:11.891328","MEAN_MOTION":13.11416888,"ECCENTRICITY":0.0001546,"INCLINATION":87.8928,"RA_OF_ASC_NODE":28.8223,"ARG_OF_PERICENTER":103.7938,"MEAN_ANOMALY":256.3362,"EPHEMERIS_TYPE":0,"CLASSIFICATION_TYPE":"U","NORAD_CAT_ID":55163,"ELEMENT_SET_NO":999,"REV_AT_EPOCH":16068,"BSTAR":0.0009583199999999999,"MEAN_MOTION_DOT":3.52e-06,"MEAN_MOTION_DDOT":0.0},{"OBJECT_NAME":"ONEWEB-0623","OBJECT_ID":"2023-004AA","EPOCH":"2026-05-09T03:19:55.571232","MEAN_MOTION":13.17649965,"ECCENTRICITY":0.0002129,"INCLINATION":87.9165,"RA_OF_ASC_NODE":13.6421,"ARG_OF_PERICENTER":102.5489,"MEAN_ANOMALY":257.5881,"EPHEMERIS_TYPE":0,"CLASSIFICATION_TYPE":"U","NORAD_CAT_ID":55164,"ELEMENT_SET_NO":999,"REV_AT_EPOCH":16244,"BSTAR":5.3568000000000006e-05,"MEAN_MOTION_DOT":3.4e-07,"MEAN_MOTION_DDOT":0.0},{"OBJECT_NAME":"ONEWEB-0624","OBJECT_ID":"2023-004AB","EPOCH":"2026-05-09T04:13:14.705760","MEAN_MOTION":13.1292689,"ECCENTRICITY":0.0001863,"INCLINATION":87.8974,"RA_OF_ASC_NODE":358.3481,"ARG_OF_PERICENTER":88.4209,"MEAN_ANOMALY":271.7133,"EPHEMERIS_TYPE":0,"CLASSIFICATION_TYPE":"U","NORAD_CAT_ID":55165,"ELEMENT_SET_NO":999,"REV_AT_EPOCH":16295,"BSTAR":0.0005013800000000001,"MEAN_MOTION_DOT":1.94e-06,"MEAN_MOTION_DDOT":0.0},{"OBJECT_NAME":"ONEWEB-0625","OBJECT_ID":"2023-004AC","EPOCH":"2026-05-09T04:54:41.616576","MEAN_MOTION":13.17672152,"ECCENTRICITY":0.0001652,"INCLINATION":87.9166,"RA_OF_ASC_NODE":13.6237,"ARG_OF_PERICENTER":81.82,"MEAN_ANOMALY":278.3119,"EPHEMERIS_TYPE":0,"CLASSIFICATION_TYPE":"U","NORAD_CAT_ID":55166,"ELEMENT_SET_NO":999,"REV_AT_EPOCH":16244,"BSTAR":-0.01221,"MEAN_MOTION_DOT":-4.727e-05,"MEAN_MOTION_DDOT":0.0},{"OBJECT_NAME":"ONEWEB-0626","OBJECT_ID":"2023-004AD","EPOCH":"2026-05-09T04:40:06.482208","MEAN_MOTION":13.17649836,"ECCENTRICITY":0.0001434,"INCLINATION":87.9167,"RA_OF_ASC_NODE":13.6254,"ARG_OF_PERICENTER":74.4236,"MEAN_ANOMALY":285.7054,"EPHEMERIS_TYPE":0,"CLASSIFICATION_TYPE":"U","NORAD_CAT_ID":55167,"ELEMENT_SET_NO":999,"REV_AT_EPOCH":16244,"BSTAR":0.00025757000000000004,"MEAN_MOTION_DOT":1.13e-06,"MEAN_MOTION_DDOT":0.0},{"OBJECT_NAME":"ONEWEB-0627","OBJECT_ID":"2023-004AE","EPOCH":"2026-05-09T04:23:06.648576","MEAN_MOTION":13.17649274,"ECCENTRICITY":0.0002018,"INCLINATION":87.9171,"RA_OF_ASC_NODE":13.6281,"ARG_OF_PERICENTER":96.9409,"MEAN_ANOMALY":263.1952,"EPHEMERIS_TYPE":0,"CLASSIFICATION_TYPE":"U","NORAD_CAT_ID":55168,"ELEMENT_SET_NO":999,"REV_AT_EPOCH":16244,"BSTAR":0.00011307,"MEAN_MOTION_DOT":5.7e-07,"MEAN_MOTION_DDOT":0.0},{"OBJECT_NAME":"ONEWEB-0628","OBJECT_ID":"2023-004AF","EPOCH":"2026-05-09T03:25:44.605632","MEAN_MOTION":13.12445861,"ECCENTRICITY":0.0002199,"INCLINATION":87.8977,"RA_OF_ASC_NODE":358.4149,"ARG_OF_PERICENTER":100.0778,"MEAN_ANOMALY":260.0599,"EPHEMERIS_TYPE":0,"CLASSIFICATION_TYPE":"U","NORAD_CAT_ID":55169,"ELEMENT_SET_NO":999,"REV_AT_EPOCH":16291,"BSTAR":0.00011337000000000001,"MEAN_MOTION_DOT":5.4e-07,"MEAN_MOTION_DDOT":0.0}]